[{"OBJECT_NAME":"STARLINK-34354","OBJECT_ID":"2025-123Z","EPOCH":"2026-03-09T17:12:26.174304","MEAN_MOTION":14.98333546,"ECCENTRICITY":0.0003151,"INCLINATION":70.0033,"RA_OF_ASC_NODE":194.3444,"ARG_OF_PERICENTER":262.0506,"MEAN_ANOMALY":98.0295,"EPHEMERIS_TYPE":0,"CLASSIFICATION_TYPE":"U","NORAD_CAT_ID":64314,"ELEMENT_SET_NO":999,"REV_AT_EPOCH":4162,"BSTAR":0.00017973123,"MEAN_MOTION_DOT":2.052e-5,"MEAN_MOTION_DDOT":0},{"OBJECT_NAME":"SPOT 1","OBJECT_ID":"1986-019A","EPOCH":"2026-03-09T18:07:50.597472","MEAN_MOTION":14.71225325,"ECCENTRICITY":0.01282848,"INCLINATION":98.6589,"RA_OF_ASC_NODE":355.6082,"ARG_OF_PERICENTER":216.6386,"MEAN_ANOMALY":142.5996,"EPHEMERIS_TYPE":0,"CLASSIFICATION_TYPE":"U","NORAD_CAT_ID":16613,"ELEMENT_SET_NO":999,"REV_AT_EPOCH":79637,"BSTAR":0.00023669966,"MEAN_MOTION_DOT":1.593e-5,"MEAN_MOTION_DDOT":0}]
